GLOBALSTAR M057         
1 25943U 99058A   25161.58560098 -.00000055  00000+0  34245-3 0  9991
2 25943  52.0006   6.9398 0002986  19.4027 340.6936 12.24821266166122
GLOBALSTAR M059         
1 25944U 99058B   25161.53037311 -.00000028  00000+0  72604-3 0  9995
2 25944  52.0001 225.1832 0000570 248.0985 258.2351 11.99979130573241
GLOBALSTAR M056         
1 25945U 99058C   25161.44273128 -.00000077  00000+0  12459-3 0  9990
2 25945  51.9948 227.5525 0001446 168.4173 204.1549 12.04781140161816
GLOBALSTAR M031         
1 25946U 99058D   25161.61383297 -.00000085  00000+0  56230-4 0  9994
2 25946  51.9950 119.8077 0001000 158.4185  12.1093 12.16036664163745
GLOBALSTAR M039         
1 25961U 99062A   25161.67218605 -.00000062  00000+0  23484-3 0  9991
2 25961  51.9854 288.5609 0002084 343.9583  16.1217 12.62327813179420
GLOBALSTAR M034         
1 25962U 99062B   25161.58219691 -.00000108  00000+0 -42843-3 0  9990
2 25962  51.9896  28.5557 0014736  30.8522 345.6881 11.79446120137615
GLOBALSTAR M029         
1 25963U 99062C   25161.62825207 -.00000093  00000+0 -85897-4 0  9992
2 25963  51.9791 112.9575 0002502  95.7844  75.8199 11.99897621168338
GLOBALSTAR M061         
1 25964U 99062D   25161.86281784 -.00000076  00000+0  73382-4 0  9991
2 25964  51.9773 211.7793 0005873 309.3458 220.8651 11.76776361120726
